[{"OBJECT_NAME":"NUSAT-49 (KLARA DAN VON NEUMANN)","OBJECT_ID":"2024-149AJ","EPOCH":"2026-03-09T19:09:16.004160","MEAN_MOTION":15.30828857,"ECCENTRICITY":0.00011321,"INCLINATION":97.3807,"RA_OF_ASC_NODE":150.738,"ARG_OF_PERICENTER":286.7761,"MEAN_ANOMALY":73.3356,"EPHEMERIS_TYPE":0,"CLASSIFICATION_TYPE":"U","NORAD_CAT_ID":60500,"ELEMENT_SET_NO":999,"REV_AT_EPOCH":8693,"BSTAR":0.00043568345,"MEAN_MOTION_DOT":0.00012912,"MEAN_MOTION_DDOT":0},{"OBJECT_NAME":"STARLINK-35428","OBJECT_ID":"2025-237B","EPOCH":"2026-03-09T22:05:18.399840","MEAN_MOTION":15.30283985,"ECCENTRICITY":0.00011106,"INCLINATION":53.1611,"RA_OF_ASC_NODE":38.7127,"ARG_OF_PERICENTER":123.7277,"MEAN_ANOMALY":236.383,"EPHEMERIS_TYPE":0,"CLASSIFICATION_TYPE":"U","NORAD_CAT_ID":66115,"ELEMENT_SET_NO":999,"REV_AT_EPOCH":2263,"BSTAR":0.0020127035,"MEAN_MOTION_DOT":0.00059889,"MEAN_MOTION_DDOT":0}]
